GSAT0101 (PRN E11)      
1 37846U 11060A   22205.79321648 -.00000082  00000+0  00000+0 0  9996
2 37846  57.0111  20.3210 0003199  60.1833 299.8753  1.70475232 66855
GSAT0102 (PRN E12)      
1 37847U 11060B   22206.01071899 -.00000081  00000+0  00000+0 0  9992
2 37847  57.0118  20.3149 0002232  18.2056 162.0433  1.70475578 66862
GSAT0103 (PRN E19)      
1 38857U 12055A   22202.31309137 -.00000005  00000+0  00000+0 0  9993
2 38857  55.1473 140.7686 0004376 271.1590  88.7610  1.70473744 60682
GSAT0104 (PRN E20)      
1 38858U 12055B   22205.80264774 -.00000019  00000+0  00000+0 0  9993
2 38858  55.1483 140.6741 0001782 275.3757  84.5668  1.70474093 60746
GSAT0201 (PRN E18)      
1 40128U 14050A   22205.93937966 -.00000125  00000+0  00000+0 0  9995
2 40128  50.2590 330.7897 1625267 125.4174 250.8888  1.85519284 51916
GSAT0202 (PRN E14)      
1 40129U 14050B   22204.04425690 -.00000133  00000+0  00000+0 0  9992
2 40129  50.2849 329.9267 1622531 126.1568 249.9907  1.85519817 54041
GSAT0203 (PRN E26)      
1 40544U 15017A   22205.57367282 -.00000083  00000+0  00000+0 0  9992
2 40544  56.8066  20.3550 0001496 210.1794 149.8389  1.70476136 44936
GSAT0204 (PRN E22)      
1 40545U 15017B   22205.23987765 -.00000083  00000+0  00000+0 0  9990
2 40545  56.8121  20.3767 0002072 181.7372 178.2891  1.70475811  7971
GSAT0205 (PRN E24)      
1 40889U 15045A   22203.83389319  .00000016  00000+0  00000+0 0  9992
2 40889  55.6002 260.9865 0003196 359.4062   0.6741  1.70473943 42713
GSAT0206 (PRN E30)      
1 40890U 15045B   22202.88149123  .00000009  00000+0  00000+0 0  9997
2 40890  55.5996 261.0088 0002053 322.1674  37.8950  1.70473886 42723
GSAT0209 (PRN E09)      
1 41174U 15079A   22205.40195354 -.00000019  00000+0  00000+0 0  9990
2 41174  55.1644 140.3876 0004562 313.3947  46.5308  1.70474118 40508
GSAT0208 (PRN E08)      
1 41175U 15079B   22206.20799897 -.00000019  00000+0  00000+0 0  9992
2 41175  55.1629 140.3641 0003921 313.2701  46.6602  1.70474129 41092
GSAT0211 (PRN E02)      
1 41549U 16030A   22206.32745712  .00000032  00000+0  00000+0 0  9999
2 41549  55.7434 260.8505 0003780 301.9954  58.0614  1.70475442 38412
GSAT0210 (PRN E01)      
1 41550U 16030B   22205.44690037  .00000027  00000+0  00000+0 0  9996
2 41550  55.7433 260.8761 0004021 270.4557  89.5873  1.70475483 38393
GSAT0207 (PRN E07)      
1 41859U 16069A   22206.28186466 -.00000019  00000+0  00000+0 0  9991
2 41859  54.8252 140.5353 0004661 300.0960  59.8204  1.70472783 35141
GSAT0212 (PRN E03)      
1 41860U 16069B   22206.13526900 -.00000019  00000+0  00000+0 0  9998
2 41860  54.8226 140.5369 0003469 323.7258  36.2133  1.70472750 35399
GSAT0213 (PRN E04)      
1 41861U 16069C   22205.32747712 -.00000019  00000+0  00000+0 0  9995
2 41861  54.8249 140.5646 0004251 279.3755  80.5397  1.70472951 35242
GSAT0214 (PRN E05)      
1 41862U 16069D   22206.06116378 -.00000019  00000+0  00000+0 0  9996
2 41862  54.8234 140.5387 0003467 284.6358  75.2885  1.70472819 35386
GSAT0215 (PRN E21)      
1 43055U 17079A   22202.44558063  .00000006  00000+0  00000+0 0  9998
2 43055  55.7213 260.7893 0003480 263.4398  96.5963  1.70474581 28664
GSAT0216 (PRN E25)      
1 43056U 17079B   22206.25730010  .00000032  00000+0  00000+0 0  9995
2 43056  55.7194 260.6841 0005247 269.9167  90.1164  1.70474764 28748
GSAT0217 (PRN E27)      
1 43057U 17079C   22205.30437547  .00000027  00000+0  00000+0 0  9994
2 43057  55.7181 260.7100 0004559 280.0916  79.9454  1.70474736 28718
GSAT0218 (PRN E31)      
1 43058U 17079D   22205.52441394  .00000028  00000+0  00000+0 0  9995
2 43058  55.7181 260.7014 0005661 267.1265  92.8982  1.70474665 28745
GSAT0221 (PRN E15)      
1 43564U 18060A   22204.83651737 -.00000084  00000+0  00000+0 0  9998
2 43564  57.1872  20.2000 0001330 274.3979  85.6138  1.70475990 24881
GSAT0222 (PRN E33)      
1 43565U 18060B   22205.05638623 -.00000083  00000+0  00000+0 0  9992
2 43565  57.1904  20.1947 0001018 302.1347  57.8822  1.70475995 24931
GSAT0219 (PRN E36)      
1 43566U 18060C   22205.86351699 -.00000081  00000+0  00000+0 0  9995
2 43566  57.1912  20.1749 0000680 309.4401  50.5803  1.70476023 24927
GSAT0220 (PRN E13)      
1 43567U 18060D   22204.91048447 -.00000083  00000+0  00000+0 0  9997
2 43567  57.1907  20.2004 0000822 273.4493  86.5682  1.70476003 24894
GSAT0223                
1 49809U 21116A   22202.41438377 -.00000088  00000+0  00000+0 0  9991
2 49809  57.1824  20.1657 0002793 140.4735 217.6493  1.70475990  3855
GSAT0224                
1 49810U 21116B   22204.87549237 -.00000084  00000+0  00000+0 0  9999
2 49810  57.1842  20.0975 0002610 127.6024  53.4401  1.70476174  3912
